H1 CPF  1  DGF 2022 02 13 11  5441 larets     NONE      
H2   304206 5557    27944 2022 02 13 00 00 00 2022 02 20 00 00 00    30 1 1  0 0 0
H5  0.0650
H9
10 0 59626  61200.000000  0       5098843.632      -4725617.632       1276134.078
10 0 59626  61230.000000  0       5093198.734      -4785695.540       1056310.722
10 0 59626  61260.000000  0       5082146.283      -4840892.681        835410.248
10 0 59626  61290.000000  0       5065718.862      -4891129.481        613657.878
10 0 59626  61320.000000  0       5043954.874      -4936331.582        391279.718
10 0 59626  61350.000000  0       5016898.479      -4976429.940        168502.526
10 0 59626  61380.000000  0       4984599.524      -5011360.927        -54446.527
10 0 59626  61410.000000  0       4947113.478      -5041066.417       -277340.090
10 0 59626  61440.000000  0       4904501.345      -5065493.874       -499950.877
10 0 59626  61470.000000  0       4856829.575      -5084596.429       -722051.904
10 0 59626  61500.000000  0       4804169.975      -5098332.949       -943416.723
10 0 59626  61530.000000  0       4746599.598      -5106668.100      -1163819.662
10 0 59626  61560.000000  0       4684200.647      -5109572.405      -1383036.056
10 0 59626  61590.000000  0       4617060.357      -5107022.297      -1600842.483
10 0 59626  61620.000000  0       4545270.883      -5099000.162      -1817016.995
10 0 59626  61650.000000  0       4468929.171      -5085494.375      -2031339.350
10 0 59626  61680.000000  0       4388136.838      -5066499.326      -2243591.239
10 0 59626  61710.000000  0       4303000.031      -5042015.450      -2453556.515
10 0 59626  61740.000000  0       4213629.292      -5012049.235      -2661021.416
10 0 59626  61770.000000  0       4120139.414      -4976613.231      -2865774.783
10 0 59626  61800.000000  0       4022649.292      -4935726.056      -3067608.278
10 0 59626  61830.000000  0       3921281.772      -4889412.385      -3266316.592
10 0 59626  61860.000000  0       3816163.500      -4837702.941      -3461697.665
10 0 59626  61890.000000  0       3707424.760      -4780634.476      -3653552.882
10 0 59626  61920.000000  0       3595199.314      -4718249.741      -3841687.283
10 0 59626  61950.000000  0       3479624.232      -4650597.456      -4025909.759
10 0 59626  61980.000000  0       3360839.724      -4577732.265      -4206033.243
10 0 59626  62010.000000  0       3238988.972      -4499714.693      -4381874.902
10 0 59626  62040.000000  0       3114217.946      -4416611.084      -4553256.314
10 0 59626  62070.000000  0       2986675.234      -4328493.549      -4720003.651
10 0 59626  62100.000000  0       2856511.859      -4235439.890      -4881947.845
10 0 59626  62130.000000  0       2723881.102      -4137533.530      -5038924.758
10 0 59626  62160.000000  0       2588938.316      -4034863.436      -5190775.337
10 0 59626  62190.000000  0       2451840.747      -3927524.029      -5337345.769
10 0 59626  62220.000000  0       2312747.355      -3815615.100      -5478487.635
10 0 59626  62250.000000  0       2171818.624      -3699241.712      -5614058.048
10 0 59626  62280.000000  0       2029216.381      -3578514.098      -5743919.801
10 0 59626  62310.000000  0       1885103.607      -3453547.555      -5867941.494
10 0 59626  62340.000000  0       1739644.251      -3324462.330      -5985997.662
10 0 59626  62370.000000  0       1593003.045      -3191383.504      -6097968.899
10 0 59626  62400.000000  0       1445345.319      -3054440.867      -6203741.972
10 0 59626  62430.000000  0       1296836.810      -2913768.788      -6303209.930
10 0 59626  62460.000000  0       1147643.476      -2769506.078      -6396272.209
10 0 59626  62490.000000  0        997931.318      -2621795.854      -6482834.723
10 0 59626  62520.000000  0        847866.188      -2470785.392      -6562809.954
10 0 59626  62550.000000  0        697613.612      -2316625.979      -6636117.035
10 0 59626  62580.000000  0        547338.610      -2159472.762      -6702681.824
10 0 59626  62610.000000  0        397205.512      -1999484.592      -6762436.975
10 0 59626  62640.000000  0        247377.786      -1836823.859      -6815321.997
10 0 59626  62670.000000  0         98017.862      -1671656.334      -6861283.314
10 0 59626  62700.000000  0        -50713.044      -1504150.995      -6900274.316
10 0 59626  62730.000000  0       -198655.096      -1334479.860      -6932255.399
10 0 59626  62760.000000  0       -345650.011      -1162817.810      -6957194.006
10 0 59626  62790.000000  0       -491541.223       -989342.415      -6975064.658
10 0 59626  62820.000000  0       -636174.049       -814233.748      -6985848.979
10 0 59626  62850.000000  0       -779395.853       -637674.202      -6989535.716
10 0 59626  62880.000000  0       -921056.207       -459848.304      -6986120.748
10 0 59626  62910.000000  0      -1061007.043       -280942.525      -6975607.089
10 0 59626  62940.000000  0      -1199102.811       -101145.085      -6958004.888
10 0 59626  62970.000000  0      -1335200.627         79354.237      -6933331.424
10 0 59626  63000.000000  0      -1469160.417        260364.301      -6901611.085
10 0 59626  63030.000000  0      -1600845.065        441692.808      -6862875.355
10 0 59626  63060.000000  0      -1730120.549        623146.499      -6817162.785
10 0 59626  63090.000000  0      -1856856.078        804531.361      -6764518.956
10 0 59626  63120.000000  0      -1980924.221        985652.832      -6704996.443
10 0 59626  63150.000000  0      -2102201.036       1166316.007      -6638654.762
10 0 59626  63180.000000  0      -2220566.196       1346325.841      -6565560.323
10 0 59626  63210.000000  0      -2335903.107       1525487.356      -6485786.369
10 0 59626  63240.000000  0      -2448099.030       1703605.859      -6399412.913
10 0 59626  63270.000000  0      -2557045.188       1880487.143      -6306526.666
10 0 59626  63300.000000  0      -2662636.881       2055937.709      -6207220.957
10 0 59626  63330.000000  0      -2764773.580       2229764.972      -6101595.644
10 0 59626  63360.000000  0      -2863359.031       2401777.477      -5989757.029
10 0 59626  63390.000000  0      -2958301.349       2571785.108      -5871817.755
10 0 59626  63420.000000  0      -3049513.104       2739599.301      -5747896.707
10 0 59626  63450.000000  0      -3136911.412       2905033.258      -5618118.891
10 0 59626  63480.000000  0      -3220418.013       3067902.156      -5482615.327
10 0 59626  63510.000000  0      -3299959.345       3228023.358      -5341522.913
10 0 59626  63540.000000  0      -3375466.614       3385216.622      -5194984.302
10 0 59626  63570.000000  0      -3446875.858       3539304.307      -5043147.756
10 0 59626  63600.000000  0      -3514128.003       3690111.583      -4886167.006
10 0 59626  63630.000000  0      -3577168.920       3837466.627      -4724201.102
10 0 59626  63660.000000  0      -3635949.463       3981200.831      -4557414.253
10 0 59626  63690.000000  0      -3690425.518       4121148.995      -4385975.664
10 0 59626  63720.000000  0      -3740558.029       4257149.525      -4210059.372
10 0 59626  63750.000000  0      -3786313.031       4389044.621      -4029844.067
10 0 59626  63780.000000  0      -3827661.669       4516680.470      -3845512.918
10 0 59626  63810.000000  0      -3864580.213       4639907.424      -3657253.390
10 0 59626  63840.000000  0      -3897050.075       4758580.189      -3465257.060
10 0 59626  63870.000000  0      -3925057.809       4872557.999      -3269719.416
10 0 59626  63900.000000  0      -3948595.119       4981704.791      -3070839.665
10 0 59626  63930.000000  0      -3967658.845       5085889.370      -2868820.523
10 0 59626  63960.000000  0      -3982250.953       5184985.575      -2663868.015
10 0 59626  63990.000000  0      -3992378.517       5278872.437      -2456191.259
10 0 59626  64020.000000  0      -3998053.694       5367434.334      -2246002.251
10 0 59626  64050.000000  0      -3999293.690       5450561.140      -2033515.647
10 0 59626  64080.000000  0      -3996120.727       5528148.366      -1818948.539
10 0 59626  64110.000000  0      -3988561.996       5600097.301      -1602520.227
10 0 59626  64140.000000  0      -3976649.611       5666315.138      -1384451.985
10 0 59626  64170.000000  0      -3960420.545       5726715.098      -1164966.826
10 0 59626  64200.000000  0      -3939916.571       5781216.540       -944289.266
10 0 59626  64230.000000  0      -3915184.189       5829745.065       -722645.091
10 0 59626  64260.000000  0      -3886274.560       5872232.615       -500261.127
10 0 59626  64290.000000  0      -3853243.428       5908617.572       -277364.997
10 0 59626  64320.000000  0      -3816151.039       5938844.852        -54184.876
10 0 59626  64350.000000  0      -3775062.049       5962865.974        169050.751
10 0 59626  64380.000000  0      -3730045.426       5980639.135        392113.336
10 0 59626  64410.000000  0      -3681174.352       5992129.271        614774.507
10 0 59626  64440.000000  0      -3628526.115       5997308.113        836806.314
10 0 59626  64470.000000  0      -3572181.998       5996154.236       1057981.468
10 0 59626  64500.000000  0      -3512227.167       5988653.094       1278073.591
10 0 59626  64530.000000  0      -3448750.541       5974797.054       1496857.451
10 0 59626  64560.000000  0      -3381844.674       5954585.409       1714109.208
10 0 59626  64590.000000  0      -3311605.623       5928024.392       1929606.644
10 0 59626  64620.000000  0      -3238132.812       5895127.181       2143129.400
10 0 59626  64650.000000  0      -3161528.900       5855913.888       2354459.206
10 0 59626  64680.000000  0      -3081899.640       5810411.554       2563380.109
10 0 59626  64710.000000  0      -2999353.732       5758654.120       2769678.696
10 0 59626  64740.000000  0      -2914002.687       5700682.403       2973144.317
10 0 59626  64770.000000  0      -2825960.669       5636544.061       3173569.300
99
